IRIDIUM 166             
1 43570U 18061B   24114.81780098  .00001514  00000+0  53361-3 0  9999
2 43570  86.4019  24.5277 0002324  84.2955 275.8505 14.34217021300976
IRIDIUM 158             
1 43571U 18061C   24114.78609305  .00000215  00000+0  69690-4 0  9997
2 43571  86.4021  24.5493 0002115  83.8152 276.3285 14.34217378300934
IRIDIUM 155             
1 43573U 18061E   24114.84315207  .00000048  00000+0  99716-5 0  9998
2 43573  86.4021  24.4645 0002261  86.6253 273.5202 14.34208031300933
IRIDIUM 163             
1 43575U 18061G   24114.80511291  .00000917  00000+0  32016-3 0  9990
2 43575  86.4021  24.5156 0002342  85.0454 275.1010 14.34220295300952
IRIDIUM 156             
1 43576U 18061H   24114.70997558  .00000529  00000+0  18177-3 0  9995
2 43576  86.4018  24.5611 0002094  85.2692 274.8743 14.34221784300936
IRIDIUM 164             
1 43577U 18061J   24114.76072330  .00000145  00000+0  44647-4 0  9990
2 43577  86.4022  24.5687 0001950  91.0179 269.1240 14.34216835300985
